NORAD_CAT_ID,OBJECT_NAME,OBJECT_TYPE,EPOCH,MEAN_MOTION,ECCENTRICITY,INCLINATION,RA_OF_ASC_NODE,ARG_OF_PERICENTER,MEAN_ANOMALY,BSTAR,MEAN_MOTION_DOT,MEAN_MOTION_DDOT,TLE_LINE0,TLE_LINE1,TLE_LINE2,SEMIMAJOR_AXIS,PERIOD,APOGEE,PERIGEE,DECAYED
52462.0,STARLINK-3903,PAYLOAD,2022-07-31 22:00:00,15.08821166,0.0002243,53.2146,210.3405,50.6593,136.3079,0.0020885,0.0003308999999999,0.0,0 STARLINK-3903,1 52462U 22049M   22212.91667824  .00033090  00000-0  20885-2 0  9998,2 52462  53.2146 210.3405 0002243  50.6593 136.3079 15.08821166  1307,6917.938,95.439,541.355,538.251,0.0
52462.0,STARLINK-3903,PAYLOAD,2022-08-01 14:00:01,15.0885418,0.0002413,53.2147,207.349,47.3986,162.7467,-0.0016227999999999,-0.00026034,0.0,0 STARLINK-3903,1 52462U 22049M   22213.58334491 -.00026034  00000-0 -16228-2 0  9991,2 52462  53.2147 207.3490 0002413  47.3986 162.7467 15.08854180  1302,6917.837,95.437,541.371,538.033,0.0
52462.0,STARLINK-3903,PAYLOAD,2022-08-01 22:00:00,15.08827453,0.0002266999999999,53.2149,205.8513,52.5532,169.196,0.0019679,0.0003116,0.0,0 STARLINK-3903,1 52462U 22049M   22213.91667824  .00031160  00000-0  19679-2 0  9994,2 52462  53.2149 205.8513 0002267  52.5532 169.1960 15.08827453  1307,6917.919,95.438,541.352,538.215,0.0
52462.0,STARLINK-3903,PAYLOAD,2022-08-02 06:00:02,15.08846257,0.0002441999999999,53.2149,204.3565,49.6412,183.7679,-0.00084336,-0.00013688,0.0,0 STARLINK-3903,1 52462U 22049M   22214.25002315 -.00013688  00000-0 -84336-3 0  9990,2 52462  53.2149 204.3565 0002442  49.6412 183.7679 15.08846257 13829,6917.861,95.437,541.4159999999998,538.0369999999998,0.0
52462.0,STARLINK-3903,PAYLOAD,2022-08-02 14:00:01,15.08859447,0.0002417,53.2147,202.8597,49.4489,195.4885,-0.0021030999999999,-0.00033623,0.0,0 STARLINK-3903,1 52462U 22049M   22214.58334491 -.00033623  00000-0 -21031-2 0  9992,2 52462  53.2147 202.8597 0002417  49.4489 195.4885 15.08859447  1303,6917.821,95.436,541.3580000000002,538.014,0.0
52462.0,STARLINK-3903,PAYLOAD,2022-08-03 06:00:00,15.08846397,0.0002489,53.2147,199.8675,51.5525,216.5956,-0.00055937,-9.182e-05,0.0,0 STARLINK-3903,1 52462U 22049M   22215.25001157 -.00009182  00000-0 -55937-3 0  9993,2 52462  53.2147 199.8675 0002489  51.5525 216.5956 15.08846397 13979,6917.861,95.437,541.448,538.004,0.0
52462.0,STARLINK-3903,PAYLOAD,2022-08-03 14:00:01,15.0886517,0.0002445,53.2144,198.3705,51.56399999999999,228.18,-0.0022905,-0.00036584,0.0,0 STARLINK-3903,1 52462U 22049M   22215.58334491 -.00036584  00000-0 -22905-2 0  9993,2 52462  53.2144 198.3705 0002445  51.5640 228.1800 15.08865170  1305,6917.803000000001,95.436,541.36,537.977,0.0
52462.0,STARLINK-3903,PAYLOAD,2022-08-03 22:00:01,15.08847546,0.0002338,53.2144,196.873,56.7037,234.7142,0.00033388,5.031e-05,0.0,0 STARLINK-3903,1 52462U 22049M   22215.91668981  .00005031  00000-0  33388-3 0  9993,2 52462  53.2144 196.8730 0002338  56.7037 234.7142 15.08847546  1303,6917.857,95.437,541.34,538.105,0.0
52462.0,STARLINK-3903,PAYLOAD,2022-08-04 14:00:01,15.08844268,0.0002416,53.214,193.8813,51.4755,263.0652,-0.0023454,-0.00037428,0.0,0 STARLINK-3903,1 52462U 22049M   22216.58334491 -.00037428  00000-0 -23454-2 0  9992,2 52462  53.2140 193.8813 0002416  51.4755 263.0652 15.08844268  1303,6917.8669999999975,95.437,541.404,538.061,0.0
52462.0,STARLINK-3903,PAYLOAD,2022-08-04 22:00:00,15.08820177,0.0002371,53.2141,192.3839,56.824,269.3015,0.0016826,0.00026578,0.0,0 STARLINK-3903,1 52462U 22049M   22216.91667824  .00026578  00000-0  16826-2 0  9995,2 52462  53.2141 192.3839 0002371  56.8240 269.3015 15.08820177  1309,6917.941,95.439,541.446,538.1659999999998,0.0
52462.0,STARLINK-3903,PAYLOAD,2022-08-05 06:00:02,15.0882773,0.0002569999999999,53.2141,190.8893,52.8705,284.9042,0.00015416,2.165e-05,0.0,0 STARLINK-3903,1 52462U 22049M   22217.25002315  .00002165  00000-0  15416-3 0  9992,2 52462  53.2141 190.8893 0002570  52.8705 284.9042 15.08827730 14270,6917.918000000002,95.438,541.561,538.005,0.0
52462.0,STARLINK-3903,PAYLOAD,2022-08-05 14:00:01,15.08851873,0.0002506999999999,53.2139,189.392,53.0034,296.3494,-0.0022459,-0.00035868,0.0,0 STARLINK-3903,1 52462U 22049M   22217.58335648 -.00035868  00000-0 -22459-2 0  9998,2 52462  53.2139 189.3920 0002507  53.0034 296.3494 15.08851873  1302,6917.844,95.437,541.443,537.975,0.0
52462.0,STARLINK-3903,PAYLOAD,2022-08-05 22:00:00,15.08833897,0.000248,53.2141,187.8947,57.9034,302.9824,0.0015289,0.00024125,0.0,0 STARLINK-3903,1 52462U 22049M   22217.91667824  .00024125  00000-0  15289-2 0  9994,2 52462  53.2141 187.8947 0002480  57.9034 302.9824 15.08833897  1318,6917.899,95.438,541.48,538.048,0.0
52462.0,STARLINK-3903,PAYLOAD,2022-08-06 14:00:01,15.088737,0.0002563999999999,53.214,184.9025,54.0853,329.9915,-0.0046147,-0.00073059,0.0,0 STARLINK-3903,1 52462U 22049M   22218.58334491 -.00073059  00000-0 -46147-2 0  9998,2 52462  53.2140 184.9025 0002564  54.0853 329.9915 15.08873700  1308,6917.776999999999,95.435,541.4159999999998,537.869,0.0
52462.0,STARLINK-3903,PAYLOAD,2022-08-06 21:50:35,15.08840733,0.000254,53.2158,183.4355,56.2735,303.8499,6.9407e-05,8.16e-06,0.0,0 STARLINK-3903,1 52462U 22049M   22218.91012963  .00000816  00000-0  69407-4 0  9997,2 52462  53.2158 183.4355 0002540  56.2735 303.8499 15.08840733 14362,6917.878000000002,95.438,541.5,537.986,0.0
52462.0,STARLINK-3903,PAYLOAD,2022-08-07 06:00:00,15.08820438,0.0002674,53.2143,181.9107,54.0483,353.2215,0.0008513,0.00013279,0.0,0 STARLINK-3903,1 52462U 22049M   22219.25001157  .00013279  00000-0  85130-3 0  9995,2 52462  53.2143 181.9107 0002674  54.0483 353.2215 15.08820438 14576,6917.94,95.439,541.655,537.955,0.0
52462.0,STARLINK-3903,PAYLOAD,2022-08-07 14:00:01,15.08846195,0.0002583,53.2143,180.4131,55.58,3.2655,-0.0017938,-0.0002873,0.0,0 STARLINK-3903,1 52462U 22049M   22219.58334491 -.00028730  00000-0 -17938-2 0  9991,2 52462  53.2143 180.4131 0002583  55.5800   3.2655 15.08846195  1300,6917.861,95.437,541.513,537.94,0.0
52462.0,STARLINK-3903,PAYLOAD,2022-08-07 21:41:22,15.08837346,0.0002525999999999,53.2159,178.9752,55.992,304.1312,-1.0618e-05,-4.57e-06,0.0,0 STARLINK-3903,1 52462U 22049M   22219.90373741 -.00000457  00000-0 -10618-4 0  9994,2 52462  53.2159 178.9752 0002526  55.9920 304.1312 15.08837346 14510,6917.889,95.438,541.501,538.006,0.0
52462.0,STARLINK-3903,PAYLOAD,2022-08-08 14:00:01,15.08879581,0.0002531,53.2146,175.9236,57.6061,36.1155,-0.0037473,-0.00059502,0.0,0 STARLINK-3903,1 52462U 22049M   22220.58335648 -.00059502  00000-0 -37473-2 0  9995,2 52462  53.2146 175.9236 0002531  57.6061  36.1155 15.08879581 14773,6917.759,95.435,541.375,537.874,0.0
52462.0,STARLINK-3903,PAYLOAD,2022-08-08 22:00:00,15.08853832,0.0002435999999999,53.2149,174.4268,60.4154,44.8594,0.00049898,7.665e-05,0.0,0 STARLINK-3903,1 52462U 22049M   22220.91667824  .00007665  00000-0  49898-3 0  9992,2 52462  53.2149 174.4268 0002436  60.4154  44.8594 15.08853832  1303,6917.8380000000025,95.437,541.388,538.018,0.0
52462.0,STARLINK-3903,PAYLOAD,2022-08-09 06:00:00,15.08837069,0.0002501999999999,53.2148,172.9321,55.0574,61.8331,-0.00043688,-7.234e-05,0.0,0 STARLINK-3903,1 52462U 22049M   22221.25001157 -.00007234  00000-0 -43688-3 0  9996,2 52462  53.2148 172.9321 0002502  55.0574  61.8331 15.08837069 14873,6917.889,95.438,541.485,538.023,0.0
52462.0,STARLINK-3903,PAYLOAD,2022-08-09 14:00:01,15.0883617,0.0002296999999999,53.2148,171.4343,56.9379,71.5418,-0.0029237,-0.00046516,0.0,0 STARLINK-3903,1 52462U 22049M   22221.58334491 -.00046516  00000-0 -29237-2 0  9991,2 52462  53.2148 171.4343 0002297  56.9379  71.5418 15.08836170  1305,6917.892,95.438,541.346,538.168,0.0
52462.0,STARLINK-3903,PAYLOAD,2022-08-09 22:00:00,15.08820784,0.0002255999999999,53.2151,169.9378,59.88,80.1645,-1.3922e-05,-5.1e-06,0.0,0 STARLINK-3903,1 52462U 22049M   22221.91667824 -.00000510  00000-0 -13922-4 0  9997,2 52462  53.2151 169.9378 0002256  59.8800  80.1645 15.08820784  1307,6917.939,95.439,541.365,538.243,0.0
52462.0,STARLINK-3903,PAYLOAD,2022-08-10 14:00:01,15.08829353,0.0002261,53.2148,166.9453,58.9552,104.2349,-0.00028795,-4.867e-05,0.0,0 STARLINK-3903,1 52462U 22049M   22222.58334491 -.00004867  00000-0 -28795-3 0  9994,2 52462  53.2148 166.9453 0002261  58.9552 104.2349 15.08829353  1304,6917.913000000001,95.438,541.342,538.214,0.0
52462.0,STARLINK-3903,PAYLOAD,2022-08-10 17:07:18,15.08821868,0.0002279999999999,53.216,166.3588,58.105,91.9849,-0.00071932,-0.00011713,0.0,0 STARLINK-3903,1 52462U 22049M   22222.71341435 -.00011713  00000-0 -71932-3 0  9994,2 52462  53.2160 166.3588 0002280  58.1050  91.9849 15.08821868 15098,6917.936,95.439,541.378,538.224,0.0
52462.0,STARLINK-3903,PAYLOAD,2022-08-10 22:00:00,15.08800109,0.0002363,53.2167,165.4457,57.845,116.9297,0.0032140999999999,0.00051181,0.0,0 STARLINK-3903,1 52462U 22049M   22222.91667824  .00051181  00000-0  32141-2 0  9998,2 52462  53.2167 165.4457 0002363  57.8450 116.9297 15.08800109  1301,6918.002,95.44,541.502,538.2330000000002,0.0
52462.0,STARLINK-3903,PAYLOAD,2022-08-11 14:00:01,15.08842591,0.0002286,53.2149,162.4563,61.0397,136.9124,7.2766e-05,8.7e-06,0.0,0 STARLINK-3903,1 52462U 22049M   22223.58334491  .00000870  00000-0  72766-4 0  9991,2 52462  53.2149 162.4563 0002286  61.0397 136.9124 15.08842591  1309,6917.871999999999,95.437,541.319,538.156,0.0
52462.0,STARLINK-3903,PAYLOAD,2022-08-11 22:00:00,15.08869351,0.0002288,53.2151,160.9602,63.3309,146.2168,-0.0034076999999999,-0.0005416,0.0,0 STARLINK-3903,1 52462U 22049M   22223.91667824 -.00054160  00000-0 -34077-2 0  9991,2 52462  53.2151 160.9602 0002288  63.3309 146.2168 15.08869351 15275,6917.791,95.436,541.238,538.073,0.0
52462.0,STARLINK-3903,PAYLOAD,2022-08-12 14:00:01,15.08839508,0.0002234,53.2151,157.9672,61.2949,171.4573,0.0010372,0.00016257,0.0,0 STARLINK-3903,1 52462U 22049M   22224.58334491  .00016257  00000-0  10372-2 0  9991,2 52462  53.2151 157.9672 0002234  61.2949 171.4573 15.08839508 15389,6917.882,95.438,541.2919999999998,538.201,0.0
